[
    {
        "Altitude(m)": 571842.6309897624,
        "Argument of Periapsis(deg)": 0.013245982221427002,
        "Eccentricity": 0.0,
        "Inclination(deg)": 53.0,
        "Latitude(deg)": -53.144737898057215,
        "Longitude(deg)": 87.24181112449168,
        "Mean Anomaly(deg)": -90.72591426484482,
        "RAAN(deg)": 279.9802867370561,
        "Satellite Name": "Starlink Shell 1 1247",
        "Satellite Number": 1247,
        "Semi-Major Axis(m)": 6931778.249405717,
        "Time(s)": 380
    },
    {
        "Altitude(m)": 571844.7707401746,
        "Argument of Periapsis(deg)": 0.013594560700938237,
        "Eccentricity": 0.0,
        "Inclination(deg)": 53.0,
        "Latitude(deg)": -53.150500411668865,
        "Longitude(deg)": 88.23914773968598,
        "Mean Anomaly(deg)": -90.09908306128816,
        "RAAN(deg)": 279.97976796697856,
        "Satellite Name": "Starlink Shell 1 1247",
        "Satellite Number": 1247,
        "Semi-Major Axis(m)": 6931778.249405717,
        "Time(s)": 390
    },
    {
        "Altitude(m)": 571843.429380479,
        "Argument of Periapsis(deg)": 0.013943139180449475,
        "Eccentricity": 0.0,
        "Inclination(deg)": 53.0,
        "Latitude(deg)": -53.14720881090135,
        "Longitude(deg)": 89.23654372764831,
        "Mean Anomaly(deg)": -89.47225185773148,
        "RAAN(deg)": 279.97924919690104,
        "Satellite Name": "Starlink Shell 1 1247",
        "Satellite Number": 1247,
        "Semi-Major Axis(m)": 6931778.249405717,
        "Time(s)": 400
    },
    {
        "Altitude(m)": 571838.607424737,
        "Argument of Periapsis(deg)": 0.014291717659960712,
        "Eccentricity": 0.0,
        "Inclination(deg)": 53.0,
        "Latitude(deg)": -53.134865537860755,
        "Longitude(deg)": 90.23356340316043,
        "Mean Anomaly(deg)": -88.84542065417466,
        "RAAN(deg)": 279.97873042682363,
        "Satellite Name": "Starlink Shell 1 1247",
        "Satellite Number": 1247,
        "Semi-Major Axis(m)": 6931778.249405717,
        "Time(s)": 410
    },
    {
        "Altitude(m)": 571830.3067764846,
        "Argument of Periapsis(deg)": 0.014640296139471948,
        "Eccentricity": 0.0,
        "Inclination(deg)": 53.0,
        "Latitude(deg)": -53.11347974419414,
        "Longitude(deg)": 91.22977170286575,
        "Mean Anomaly(deg)": -88.21858945061797,
        "RAAN(deg)": 279.97821165674617,
        "Satellite Name": "Starlink Shell 1 1247",
        "Satellite Number": 1247,
        "Semi-Major Axis(m)": 6931778.249405717,
        "Time(s)": 420
    },
    {
        "Altitude(m)": 571818.5307278952,
        "Argument of Periapsis(deg)": 0.014988874618983185,
        "Eccentricity": 0.0,
        "Inclination(deg)": 53.0,
        "Latitude(deg)": -53.08306725757671,
        "Longitude(deg)": 92.22473598562082,
        "Mean Anomaly(deg)": -87.59175824706129,
        "RAAN(deg)": 279.97769288666865,
        "Satellite Name": "Starlink Shell 1 1247",
        "Satellite Number": 1247,
        "Semi-Major Axis(m)": 6931778.249405717,
        "Time(s)": 430
    },
    {
        "Altitude(m)": 571803.2839583775,
        "Argument of Periapsis(deg)": 0.015337453098494424,
        "Eccentricity": 0.0,
        "Inclination(deg)": 53.0,
        "Latitude(deg)": -53.0436505239306,
        "Longitude(deg)": 93.21802781508602,
        "Mean Anomaly(deg)": -86.96492704350456,
        "RAAN(deg)": 279.9771741165912,
        "Satellite Name": "Starlink Shell 1 1247",
        "Satellite Number": 1247,
        "Semi-Major Axis(m)": 6931778.249405717,
        "Time(s)": 440
    },
    {
        "Altitude(m)": 571784.5725325344,
        "Argument of Periapsis(deg)": 0.01568603157800566,
        "Eccentricity": 0.0,
        "Inclination(deg)": 53.0,
        "Latitude(deg)": -52.995258525867754,
        "Longitude(deg)": 94.20922320245434,
        "Mean Anomaly(deg)": -86.3380958399478,
        "RAAN(deg)": 279.9766553465137,
        "Satellite Name": "Starlink Shell 1 1247",
        "Satellite Number": 1247,
        "Semi-Major Axis(m)": 6931778.249405717,
        "Time(s)": 450
    },
    {
        "Altitude(m)": 571762.4038975715,
        "Argument of Periapsis(deg)": 0.0160346100575169,
        "Eccentricity": 0.0,
        "Inclination(deg)": 53.0,
        "Latitude(deg)": -52.93792667804933,
        "Longitude(deg)": 95.19790432618841,
        "Mean Anomaly(deg)": -85.71126463639114,
        "RAAN(deg)": 279.97613657643626,
        "Satellite Name": "Starlink Shell 1 1247",
        "Satellite Number": 1247,
        "Semi-Major Axis(m)": 6931778.249405717,
        "Time(s)": 460
    },
    {
        "Altitude(m)": 571736.7868800547,
        "Argument of Periapsis(deg)": 0.016383188537028134,
        "Eccentricity": 0.0,
        "Inclination(deg)": 53.0,
        "Latitude(deg)": -52.871696700341374,
        "Longitude(deg)": 96.18366120750858,
        "Mean Anomaly(deg)": -85.08443343283439,
        "RAAN(deg)": 279.9756178063588,
        "Satellite Name": "Starlink Shell 1 1247",
        "Satellite Number": 1247,
        "Semi-Major Axis(m)": 6931778.249405717,
        "Time(s)": 470
    },
    {
        "Altitude(m)": 571707.7316821119,
        "Argument of Periapsis(deg)": 0.01673176701653937,
        "Eccentricity": 0.0,
        "Inclination(deg)": 53.0,
        "Latitude(deg)": -52.796616469821785,
        "Longitude(deg)": 97.16609182096124,
        "Mean Anomaly(deg)": -84.45760222927771,
        "RAAN(deg)": 279.9750990362813,
        "Satellite Name": "Starlink Shell 1 1247",
        "Satellite Number": 1247,
        "Semi-Major Axis(m)": 6931778.249405717,
        "Time(s)": 480
    },
    {
        "Altitude(m)": 571675.2498770229,
        "Argument of Periapsis(deg)": 0.017080345496050607,
        "Eccentricity": 0.0,
        "Inclination(deg)": 53.0,
        "Latitude(deg)": -52.712739852852096,
        "Longitude(deg)": 98.14480365869295,
        "Mean Anomaly(deg)": -83.83077102572094,
        "RAAN(deg)": 279.9745802662038,
        "Satellite Name": "Starlink Shell 1 1247",
        "Satellite Number": 1247,
        "Semi-Major Axis(m)": 6931778.249405717,
        "Time(s)": 490
    },
    {
        "Altitude(m)": 571639.354404208,
        "Argument of Periapsis(deg)": 0.017428923975561842,
        "Eccentricity": 0.0,
        "Inclination(deg)": 53.0,
        "Latitude(deg)": -52.62012651857031,
        "Longitude(deg)": 99.11941522919398,
        "Mean Anomaly(deg)": -83.20393982216432,
        "RAAN(deg)": 279.9740614961264,
        "Satellite Name": "Starlink Shell 1 1247",
        "Satellite Number": 1247,
        "Semi-Major Axis(m)": 6931778.249405717,
        "Time(s)": 500
    },
    {
        "Altitude(m)": 571600.0595636424,
        "Argument of Periapsis(deg)": 0.01777750245507308,
        "Eccentricity": 0.0,
        "Inclination(deg)": 53.0,
        "Latitude(deg)": -52.518841735281555,
        "Longitude(deg)": 100.08955597211343,
        "Mean Anomaly(deg)": -82.57710861860755,
        "RAAN(deg)": 279.9735427260489,
        "Satellite Name": "Starlink Shell 1 1247",
        "Satellite Number": 1247,
        "Semi-Major Axis(m)": 6931778.249405717,
        "Time(s)": 510
    },
    {
        "Altitude(m)": 571557.3810096651,
        "Argument of Periapsis(deg)": 0.018126080934584315,
        "Eccentricity": 0.0,
        "Inclination(deg)": 53.0,
        "Latitude(deg)": -52.40895615132767,
        "Longitude(deg)": 101.05486761021207,
        "Mean Anomaly(deg)": -81.95027741505075,
        "RAAN(deg)": 279.97302395597137,
        "Satellite Name": "Starlink Shell 1 1247",
        "Satellite Number": 1247,
        "Semi-Major Axis(m)": 6931778.249405717,
        "Time(s)": 520
    },
    {
        "Altitude(m)": 571511.3357442099,
        "Argument of Periapsis(deg)": 0.018474659414095554,
        "Eccentricity": 0.0,
        "Inclination(deg)": 53.0,
        "Latitude(deg)": -52.29054556208184,
        "Longitude(deg)": 102.01500542192638,
        "Mean Anomaly(deg)": -81.32344621149413,
        "RAAN(deg)": 279.97250518589397,
        "Satellite Name": "Starlink Shell 1 1247",
        "Satellite Number": 1247,
        "Semi-Major Axis(m)": 6931778.249405717,
        "Time(s)": 530
    },
    {
        "Altitude(m)": 571461.9421094658,
        "Argument of Periapsis(deg)": 0.018823237893606792,
        "Eccentricity": 0.0,
        "Inclination(deg)": 53.0,
        "Latitude(deg)": -52.16369066486031,
        "Longitude(deg)": 102.969637918229,
        "Mean Anomaly(deg)": -80.69661500793747,
        "RAAN(deg)": 279.9719864158165,
        "Satellite Name": "Starlink Shell 1 1247",
        "Satellite Number": 1247,
        "Semi-Major Axis(m)": 6931778.249405717,
        "Time(s)": 540
    },
    {
        "Altitude(m)": 571409.2197798963,
        "Argument of Periapsis(deg)": 0.019171816373118027,
        "Eccentricity": 0.0,
        "Inclination(deg)": 53.0,
        "Latitude(deg)": -52.02847680333659,
        "Longitude(deg)": 103.91844794902218,
        "Mean Anomaly(deg)": -80.06978380438069,
        "RAAN(deg)": 279.971467645739,
        "Satellite Name": "Starlink Shell 1 1247",
        "Satellite Number": 1247,
        "Semi-Major Axis(m)": 6931778.249405717,
        "Time(s)": 550
    },
    {
        "Altitude(m)": 571353.189753773,
        "Argument of Periapsis(deg)": 0.019520394852629266,
        "Eccentricity": 0.0,
        "Inclination(deg)": 53.0,
        "Latitude(deg)": -51.88499370344812,
        "Longitude(deg)": 104.86113372331495,
        "Mean Anomaly(deg)": -79.44295260082397,
        "RAAN(deg)": 279.9709488756615,
        "Satellite Name": "Starlink Shell 1 1247",
        "Satellite Number": 1247,
        "Semi-Major Axis(m)": 6931778.249405717,
        "Time(s)": 560
    }
]